NORAD_CAT_ID,OBJECT_NAME,OBJECT_TYPE,EPOCH,MEAN_MOTION,ECCENTRICITY,INCLINATION,RA_OF_ASC_NODE,ARG_OF_PERICENTER,MEAN_ANOMALY,BSTAR,MEAN_MOTION_DOT,MEAN_MOTION_DDOT,TLE_LINE0,TLE_LINE1,TLE_LINE2,SEMIMAJOR_AXIS,PERIOD,APOGEE,PERIGEE,DECAYED
52373.0,STARLINK-3550,PAYLOAD,2022-12-18 04:46:29,15.08840004,0.0002166,53.2186,75.0775,30.1507,329.9609,-2.3502e-05,-6.62e-06,0.0,0 STARLINK-3550,1 52373U 22045AU  22352.19895634 -.00000662  00000-0 -23502-4 0  9994,2 52373  53.2186  75.0775 0002166  30.1507 329.9609 15.08840004 38165,6917.88,95.438,541.244,538.247,0.0
52373.0,STARLINK-3550,PAYLOAD,2022-12-18 12:43:25,15.08833663,0.0002154,53.2187,73.5904,30.6943,329.4175,-1.1494e-05,-4.71e-06,0.0,0 STARLINK-3550,1 52373U 22045AU  22352.53016109 -.00000471  00000-0 -11494-4 0  9999,2 52373  53.2187  73.5904 0002154  30.6943 329.4175 15.08833663 38211,6917.9,95.438,541.255,538.275,0.0
52373.0,STARLINK-3550,PAYLOAD,2022-12-19 01:26:31,15.08824892,0.0002071,53.2189,71.2112,30.8688,329.2426,7.6457e-05,9.28e-06,0.0,0 STARLINK-3550,1 52373U 22045AU  22353.06008844  .00000928  00000-0  76457-4 0  9990,2 52373  53.2189  71.2112 0002071  30.8688 329.2426 15.08824892 38294,6917.927,95.439,541.224,538.359,0.0
52373.0,STARLINK-3550,PAYLOAD,2022-12-19 07:48:03,15.08840909,0.0002085,53.2186,70.0221,42.3025,317.8127,5.8532e-05,6.43e-06,0.0,0 STARLINK-3550,1 52373U 22045AU  22353.32504037  .00000643  00000-0  58532-4 0  9992,2 52373  53.2186  70.0221 0002085  42.3025 317.8127 15.08840909 38330,6917.878000000002,95.437,541.185,538.3,0.0
52373.0,STARLINK-3550,PAYLOAD,2022-12-19 15:44:59,15.08839941,0.0002398,53.2188,68.5365,29.1867,330.9259,0.00018752,2.697e-05,0.0,0 STARLINK-3550,1 52373U 22045AU  22353.65624018  .00002697  00000-0  18752-3 0  9990,2 52373  53.2188  68.5365 0002398  29.1867 330.9259 15.08839941 38388,6917.880999999999,95.438,541.404,538.087,0.0
52373.0,STARLINK-3550,PAYLOAD,2022-12-20 10:49:36,15.0885133,0.0002182,53.2194,64.9675,33.6996,326.4134,0.00023377,3.435e-05,0.0,0 STARLINK-3550,1 52373U 22045AU  22354.45111120  .00003435  00000-0  23377-3 0  9994,2 52373  53.2194  64.9675 0002182  33.6996 326.4134 15.08851330 38505,6917.846,95.437,541.22,538.201,0.0
52373.0,STARLINK-3550,PAYLOAD,2022-12-21 04:18:51,15.08838071,0.0002123,53.218,61.6965,33.7638,326.3489,-4.5139e-05,-1.007e-05,0.0,0 STARLINK-3550,1 52373U 22045AU  22355.17976047 -.00001007  00000-0 -45139-4 0  9997,2 52373  53.2180  61.6965 0002123  33.7638 326.3489 15.08838071 38616,6917.886,95.438,541.22,538.283,0.0
52373.0,STARLINK-3550,PAYLOAD,2022-12-21 10:40:24,15.08823651,0.0002242,53.218,60.5065,33.1097,327.0035,-0.0002448,-4.181e-05,0.0,0 STARLINK-3550,1 52373U 22045AU  22355.44472996 -.00004181  00000-0 -24480-3 0  9992,2 52373  53.2180  60.5065 0002242  33.1097 327.0035 15.08823651 38657,6917.93,95.439,541.346,538.244,0.0
52373.0,STARLINK-3550,PAYLOAD,2022-12-22 04:09:38,15.08839917,0.0002433,53.2192,57.2359,30.6678,329.4456,6.3102e-06,-1.88e-06,0.0,0 STARLINK-3550,1 52373U 22045AU  22356.17336781 -.00000188  00000-0  63102-5 0  9992,2 52373  53.2192  57.2359 0002433  30.6678 329.4456 15.08839917 38765,6917.880999999999,95.438,541.429,538.063,0.0
52373.0,STARLINK-3550,PAYLOAD,2022-12-22 10:31:10,15.08849118,0.0002307,53.219,56.0462,34.4348,325.6793,4.4576e-05,4.21e-06,0.0,0 STARLINK-3550,1 52373U 22045AU  22356.43832064  .00000421  00000-0  44576-4 0  9998,2 52373  53.2190  56.0462 0002307  34.4348 325.6793 15.08849118 38802,6917.853,95.437,541.313,538.122,0.0
52373.0,STARLINK-3550,PAYLOAD,2022-12-22 12:06:34,15.08847899,0.000242,53.2183,55.7493,31.2693,328.8442,0.0001293,1.771e-05,0.0,0 STARLINK-3550,1 52373U 22045AU  22356.50456170  .00001771  00000-0  12930-3 0  9993,2 52373  53.2183  55.7493 0002420  31.2693 328.8442 15.08847899 38819,6917.856,95.437,541.395,538.047,0.0
52373.0,STARLINK-3550,PAYLOAD,2022-12-23 04:00:29,15.08776799,0.000274,53.2181,52.7762,36.8408,323.2772,0.0019566,0.00030936,0.0,0 STARLINK-3550,1 52373U 22045AU  22357.16700791  .00030936  00000-0  19566-2 0  9993,2 52373  53.2181  52.7762 0002740  36.8408 323.2772 15.08776799 38919,6918.074000000001,95.442,541.8340000000002,538.043,0.0
52373.0,STARLINK-3550,PAYLOAD,2022-12-23 10:22:00,15.08819584,0.0002454,53.2181,51.5863,36.6076,323.5083,0.0007367,0.0001145,0.0,0 STARLINK-3550,1 52373U 22045AU  22357.43194618  .00011450  00000-0  73670-3 0  9995,2 52373  53.2181  51.5863 0002454  36.6076 323.5083 15.08819584 38951,6917.943,95.439,541.505,538.11,0.0
52373.0,STARLINK-3550,PAYLOAD,2022-12-24 03:51:12,15.08854224,0.0002463,53.2187,48.316,27.2617,332.8504,0.00033148,4.993e-05,0.0,0 STARLINK-3550,1 52373U 22045AU  22358.16056563  .00004993  00000-0  33148-3 0  9992,2 52373  53.2187  48.3160 0002463  27.2617 332.8504 15.08854224 39062,6917.837,95.437,541.406,537.998,0.0
52373.0,STARLINK-3550,PAYLOAD,2022-12-24 11:48:08,15.08845876,0.0002407,53.2177,46.8284,26.4363,333.6751,0.00014281,1.986e-05,0.0,0 STARLINK-3550,1 52373U 22045AU  22358.49176654  .00001986  00000-0  14281-3 0  9998,2 52373  53.2177  46.8284 0002407  26.4363 333.6751 15.08845876 39110,6917.861999999999,95.437,541.393,538.062,0.0
52373.0,STARLINK-3550,PAYLOAD,2022-12-24 13:23:31,15.08844656,0.0002439,53.2183,46.5315,26.643,333.4687,0.00011586,1.556e-05,0.0,0 STARLINK-3550,1 52373U 22045AU  22358.55800735  .00001556  00000-0  11586-3 0  9997,2 52373  53.2183  46.5315 0002439  26.6430 333.4687 15.08844656 39123,6917.866,95.437,541.418,538.044,0.0
52373.0,STARLINK-3550,PAYLOAD,2022-12-25 11:38:56,15.08831689,0.0002508,53.2195,42.3683,25.1766,334.9348,3.5173000000000004e-05,2.71e-06,0.0,0 STARLINK-3550,1 52373U 22045AU  22359.48537625  .00000271  00000-0  35173-4 0  9997,2 52373  53.2195  42.3683 0002508  25.1766 334.9348 15.08831689 39268,6917.906,95.438,541.506,538.036,0.0
52373.0,STARLINK-3550,PAYLOAD,2022-12-25 19:35:51,15.08836629,0.0002482,53.2194,40.8815,26.7145,333.3975,5.841e-05,6.41e-06,0.0,0 STARLINK-3550,1 52373U 22045AU  22359.81657181  .00000641  00000-0  58410-4 0  9994,2 52373  53.2194  40.8815 0002482  26.7145 333.3975 15.08836629 39310,6917.891,95.438,541.4730000000002,538.039,0.0
52373.0,STARLINK-3550,PAYLOAD,2022-12-26 13:05:06,15.08834945,0.0002496,53.2202,37.6109,33.0239,327.0909,5.8701e-06,-1.95e-06,0.0,0 STARLINK-3550,1 52373U 22045AU  22360.54521665 -.00000195  00000-0  58701-5 0  9992,2 52373  53.2202  37.6109 0002496  33.0239 327.0909 15.08834945 39428,6917.896,95.438,541.488,538.034,0.0
52373.0,STARLINK-3550,PAYLOAD,2022-12-27 01:48:10,15.0884607,0.0002345,53.2199,35.2313,30.2243,329.8884,0.00014806,2.069e-05,0.0,0 STARLINK-3550,1 52373U 22045AU  22361.07512554  .00002069  00000-0  14806-3 0  9995,2 52373  53.2199  35.2313 0002345  30.2243 329.8884 15.08846070 39504,6917.861999999999,95.437,541.349,538.105,0.0
52373.0,STARLINK-3550,PAYLOAD,2022-12-27 19:17:25,15.0884788,0.0002544,53.2202,31.9607,30.1899,329.9240000000001,0.00013745,1.9e-05,0.0,0 STARLINK-3550,1 52373U 22045AU  22361.80376389  .00001900  00000-0  13745-3 0  9994,2 52373  53.2202  31.9607 0002544  30.1899 329.9240 15.08847880 39614,6917.856,95.437,541.481,537.961,0.0
52373.0,STARLINK-3550,PAYLOAD,2022-12-28 11:11:17,15.08818457,0.0002391,53.2192,28.9855,29.2172,330.8954,0.00040848,6.215e-05,0.0,0 STARLINK-3550,1 52373U 22045AU  22362.46617494  .00006215  00000-0  40848-3 0  9990,2 52373  53.2192  28.9855 0002391  29.2172 330.8954 15.08818457 39718,6917.946,95.439,541.465,538.1569999999998,0.0
52373.0,STARLINK-3550,PAYLOAD,2022-12-28 19:08:13,15.08835083,0.0002711,53.2195,27.5004,30.8988,329.2163,1.4878e-06,-2.65e-06,0.0,0 STARLINK-3550,1 52373U 22045AU  22362.79737508 -.00000265  00000-0  14878-5 0  9991,2 52373  53.2195  27.5004 0002711  30.8988 329.2163 15.08835083 39764,6917.895,95.438,541.636,537.885,0.0
52373.0,STARLINK-3550,PAYLOAD,2022-12-29 01:29:45,15.08839914,0.000262,53.2183,26.3105,32.3689,327.7463,-7.261899999999999e-05,-1.444e-05,0.0,0 STARLINK-3550,1 52373U 22045AU  22363.06233298 -.00001444  00000-0 -72619-4 0  9996,2 52373  53.2183  26.3105 0002620  32.3689 327.7463 15.08839914 39802,6917.880999999999,95.438,541.558,537.933,0.0
52373.0,STARLINK-3550,PAYLOAD,2022-12-29 07:51:18,15.08831255,0.0002505999999999,53.2193,25.1207,27.9011,332.2115,-6.9676e-05,-1.397e-05,0.0,0 STARLINK-3550,1 52373U 22045AU  22363.32729887 -.00001397  00000-0 -69676-4 0  9995,2 52373  53.2193  25.1207 0002506  27.9011 332.2115 15.08831255 39844,6917.906999999997,95.438,541.506,538.038,0.0
52373.0,STARLINK-3550,PAYLOAD,2022-12-29 18:59:01,15.0882573,0.0002499,53.2197,23.0392,25.5986,334.5129,-0.00017452,-3.064e-05,0.0,0 STARLINK-3550,1 52373U 22045AU  22363.79098922 -.00003064  00000-0 -17452-3 0  9992,2 52373  53.2197  23.0392 0002499  25.5986 334.5129 15.08825730 39915,6917.924,95.438,541.518,538.06,0.0
52373.0,STARLINK-3550,PAYLOAD,2022-12-30 07:42:06,15.08825287,0.0002671,53.2173,20.6625,23.584,336.5275,-5.5183e-06,-3.76e-06,0.0,0 STARLINK-3550,1 52373U 22045AU  22364.32090851 -.00000376  00000-0 -55183-5 0  9993,2 52373  53.2173  20.6625 0002671  23.5840 336.5275 15.08825287 39999,6917.925,95.438,541.638,537.943,0.0
52373.0,STARLINK-3550,PAYLOAD,2022-12-30 18:49:47,15.08835238,0.0002150999999999,53.2196,18.5768,31.5231,328.589,0.00013729,1.897e-05,0.0,0 STARLINK-3550,1 52373U 22045AU  22364.78457987  .00001897  00000-0  13729-3 0  9995,2 52373  53.2196  18.5768 0002151  31.5231 328.5890 15.08835238 40065,6917.895,95.438,541.248,538.2719999999998,0.0
52373.0,STARLINK-3550,PAYLOAD,2022-12-31 04:22:05,15.08850859,0.000235,53.2195,16.7942,29.2253,330.88699999999994,0.00029805,4.46e-05,0.0,0 STARLINK-3550,1 52373U 22045AU  22365.18200539  .00004460  00000-0  29805-3 0  9990,2 52373  53.2195  16.7942 0002350  29.2253 330.8870 15.08850859 40124,6917.847,95.437,541.3380000000002,538.087,0.0
